start=new Date('2022-11-04T00:00:00.000Z').valueOf();
sats=[{"INCLINATION":"53.0558","GP_ID":"216836211","TIME_SYSTEM":"UTC","LAUNCH_DATE":"2020-09-03","MEAN_MOTION_DDOT":"0.0000000000000","EPOCH":"2022-11-03T19:07:15.596256","CLASSIFICATION_TYPE":"U","FILE":"3643888","OBJECT_ID":"2020-062U","PERIOD":"95.592","COUNTRY_CODE":"US","TLE_LINE2":"2 46343  53.0558  81.9134 0000821 104.5578 255.5502 15.06395084120609","DECAY_DATE":null,"MEAN_MOTION":"15.06395084","SITE":"AFETR","APOAPSIS":"547.797","OBJECT_NAME":"STARLINK-1764","ARG_OF_PERICENTER":"104.5578","EPHEMERIS_TYPE":"0","RA_OF_ASC_NODE":"81.9134","BSTAR":"-0.00001592900000","NORAD_CAT_ID":"46343","SEMIMAJOR_AXIS":"6925.364","RCS_SIZE":"LARGE","REV_AT_EPOCH":"12060","ECCENTRICITY":"0.00008210","MEAN_ELEMENT_THEORY":"SGP4","REF_FRAME":"TEME","ELEMENT_SET_NO":"999","MEAN_ANOMALY":"255.5502","CENTER_NAME":"EARTH","PERIAPSIS":"546.660","OBJECT_TYPE":"PAYLOAD","TLE_LINE1":"1 46343U 20062U   22307.79670829 -.00000518  00000-0 -15929-4 0  9998","MEAN_MOTION_DOT":"-0.00000518"},{"MEAN_ANOMALY":"237.6633","ELEMENT_SET_NO":"999","TLE_LINE1":"1 46344U 20062V   22307.81513302  .00002195  00000-0  16617-3 0  9999","MEAN_MOTION_DOT":"0.00002195","OBJECT_TYPE":"PAYLOAD","PERIAPSIS":"546.251","CENTER_NAME":"EARTH","NORAD_CAT_ID":"46344","SEMIMAJOR_AXIS":"6925.308","RA_OF_ASC_NODE":"81.8402","BSTAR":"0.00016617000000","REF_FRAME":"TEME","ECCENTRICITY":"0.00013310","MEAN_ELEMENT_THEORY":"SGP4","RCS_SIZE":"LARGE","REV_AT_EPOCH":"12058","PERIOD":"95.591","OBJECT_ID":"2020-062V","FILE":"3643888","CLASSIFICATION_TYPE":"U","OBJECT_NAME":"STARLINK-1765","ARG_OF_PERICENTER":"122.4485","EPHEMERIS_TYPE":"0","APOAPSIS":"548.095","SITE":"AFETR","MEAN_MOTION":"15.06413224","DECAY_DATE":null,"COUNTRY_CODE":"US","TLE_LINE2":"2 46344  53.0551  81.8402 0001331 122.4485 237.6633 15.06413224120583","GP_ID":"216836518","INCLINATION":"53.0551","EPOCH":"2022-11-03T19:33:47.492928","LAUNCH_DATE":"2020-09-03","MEAN_MOTION_DDOT":"0.0000000000000","TIME_SYSTEM":"UTC"},{"INCLINATION":"53.0540","GP_ID":"216858266","LAUNCH_DATE":"2020-09-03","MEAN_MOTION_DDOT":"0.0000000000000","TIME_SYSTEM":"UTC","EPOCH":"2022-11-03T19:35:06.182592","FILE":"3644033","PERIOD":"95.591","OBJECT_ID":"2020-062W","CLASSIFICATION_TYPE":"U","MEAN_MOTION":"15.06410702","TLE_LINE2":"2 46345  53.0540 101.8123 0001406 107.3343 252.7800 15.06410702120147","COUNTRY_CODE":"US","DECAY_DATE":null,"SITE":"AFETR","APOAPSIS":"548.154","OBJECT_NAME":"STARLINK-1767","ARG_OF_PERICENTER":"107.3343","EPHEMERIS_TYPE":"0","NORAD_CAT_ID":"46345","SEMIMAJOR_AXIS":"6925.316","RA_OF_ASC_NODE":"101.8123","BSTAR":"0.00047320000000","ECCENTRICITY":"0.00014060","MEAN_ELEMENT_THEORY":"SGP4","REV_AT_EPOCH":"12014","RCS_SIZE":"LARGE","REF_FRAME":"TEME","MEAN_ANOMALY":"252.7800","ELEMENT_SET_NO":"999","CENTER_NAME":"EARTH","OBJECT_TYPE":"PAYLOAD","MEAN_MOTION_DOT":"0.00006776","TLE_LINE1":"1 46345U 20062W   22307.81604378  .00006776  00000-0  47320-3 0  9998","PERIAPSIS":"546.207"},{"REF_FRAME":"TEME","RCS_SIZE":"LARGE","REV_AT_EPOCH":"12267","ECCENTRICITY":"0.00029370","MEAN_ELEMENT_THEORY":"SGP4","BSTAR":"0.00030139000000","RA_OF_ASC_NODE":"280.1466","SEMIMAJOR_AXIS":"6841.227","NORAD_CAT_ID":"46346","PERIAPSIS":"461.083","OBJECT_TYPE":"PAYLOAD","MEAN_MOTION_DOT":"0.00009779","TLE_LINE1":"1 46346U 20062X   22307.35567425  .00009779  00000-0  30139-3 0  9995","CENTER_NAME":"EARTH","ELEMENT_SET_NO":"999","MEAN_ANOMALY":"331.1283","EPOCH":"2022-11-03T08:32:10.255200","TIME_SYSTEM":"UTC","LAUNCH_DATE":"2020-09-03","MEAN_MOTION_DDOT":"0.0000000000000","GP_ID":"216829684","INCLINATION":"53.0543","APOAPSIS":"465.102","SITE":"AFETR","ARG_OF_PERICENTER":"28.9881","EPHEMERIS_TYPE":"0","OBJECT_NAME":"STARLINK-1546","TLE_LINE2":"2 46346  53.0543 280.1466 0002937  28.9881 331.1283 15.34269761122672","COUNTRY_CODE":"US","DECAY_DATE":null,"MEAN_MOTION":"15.34269761","CLASSIFICATION_TYPE":"U","FILE":"3643813","OBJECT_ID":"2020-062X","PERIOD":"93.856"},{"INCLINATION":"53.0565","GP_ID":"216803158","MEAN_MOTION_DDOT":"0.0000000000000","LAUNCH_DATE":"2020-09-03","TIME_SYSTEM":"UTC","EPOCH":"2022-11-03T10:38:22.498944","OBJECT_ID":"2020-062Y","PERIOD":"95.591","FILE":"3643466","CLASSIFICATION_TYPE":"U","MEAN_MOTION":"15.06414302","DECAY_DATE":null,"TLE_LINE2":"2 46347  53.0565  58.5011 0001404  80.3260 279.7888 15.06414302120893","COUNTRY_CODE":"US","OBJECT_NAME":"STARLINK-1547","ARG_OF_PERICENTER":"80.3260","EPHEMERIS_TYPE":"0","SITE":"AFETR","APOAPSIS":"548.142","SEMIMAJOR_AXIS":"6925.305","NORAD_CAT_ID":"46347","BSTAR":"0.00004757900000","RA_OF_ASC_NODE":"58.5011","ECCENTRICITY":"0.00014040","MEAN_ELEMENT_THEORY":"SGP4","REV_AT_EPOCH":"12089","RCS_SIZE":"LARGE","REF_FRAME":"TEME","MEAN_ANOMALY":"279.7888","ELEMENT_SET_NO":"999","CENTER_NAME":"EARTH","MEAN_MOTION_DOT":"0.00000428","TLE_LINE1":"1 46347U 20062Y   22307.44331596  .00000428  00000-0  47579-4 0  9993","OBJECT_TYPE":"PAYLOAD","PERIAPSIS":"546.197"},{"CLASSIFICATION_TYPE":"U","OBJECT_ID":"2020-062Z","PERIOD":"95.592","FILE":"3643997","ARG_OF_PERICENTER":"112.8657","EPHEMERIS_TYPE":"0","OBJECT_NAME":"STARLINK-1553","APOAPSIS":"548.336","SITE":"AFETR","DECAY_DATE":null,"TLE_LINE2":"2 46348  53.0560  82.1040 0001632 112.8657 247.2505 15.06402690120598","COUNTRY_CODE":"US","MEAN_MOTION":"15.06402690","GP_ID":"216838782","INCLINATION":"53.0560","EPOCH":"2022-11-03T18:03:34.147584","TIME_SYSTEM":"UTC","MEAN_MOTION_DDOT":"0.0000000000000","LAUNCH_DATE":"2020-09-03","ELEMENT_SET_NO":"999","MEAN_ANOMALY":"247.2505","PERIAPSIS":"546.075","MEAN_MOTION_DOT":"0.00002204","TLE_LINE1":"1 46348U 20062Z   22307.75247856  .00002204  00000-0  16683-3 0  9998","OBJECT_TYPE":"PAYLOAD","CENTER_NAME":"EARTH","BSTAR":"0.00016683000000","RA_OF_ASC_NODE":"82.1040","NORAD_CAT_ID":"46348","SEMIMAJOR_AXIS":"6925.340","REF_FRAME":"TEME","REV_AT_EPOCH":"12059","RCS_SIZE":"LARGE","MEAN_ELEMENT_THEORY":"SGP4","ECCENTRICITY":"0.00016320"},{"EPOCH":"2022-11-03T16:23:23.341920","TIME_SYSTEM":"UTC","LAUNCH_DATE":"2020-09-03","MEAN_MOTION_DDOT":"0.0000000000000","GP_ID":"216857766","INCLINATION":"53.0549","ARG_OF_PERICENTER":"74.0432","EPHEMERIS_TYPE":"0","OBJECT_NAME":"STARLINK-1575","APOAPSIS":"548.151","SITE":"AFETR","DECAY_DATE":null,"TLE_LINE2":"2 46349  53.0549  57.4195 0001369  74.0432 286.0708 15.06403484120755","COUNTRY_CODE":"US","MEAN_MOTION":"15.06403484","CLASSIFICATION_TYPE":"U","PERIOD":"95.592","OBJECT_ID":"2020-062AA","FILE":"3644033","REF_FRAME":"TEME","RCS_SIZE":"LARGE","REV_AT_EPOCH":"12075","MEAN_ELEMENT_THEORY":"SGP4","ECCENTRICITY":"0.00013690","RA_OF_ASC_NODE":"57.4195","BSTAR":"0.00022074000000","NORAD_CAT_ID":"46349","SEMIMAJOR_AXIS":"6925.338","PERIAPSIS":"546.255","MEAN_MOTION_DOT":"0.00003008","TLE_LINE1":"1 46349U 20062AA  22307.68290905  .00003008  00000-0  22074-3 0  9998","OBJECT_TYPE":"PAYLOAD","CENTER_NAME":"EARTH","ELEMENT_SET_NO":"999","MEAN_ANOMALY":"286.0708"},{"BSTAR":"0.00010817000000","RA_OF_ASC_NODE":"102.5856","SEMIMAJOR_AXIS":"6925.346","NORAD_CAT_ID":"46350","REF_FRAME":"TEME","RCS_SIZE":"LARGE","REV_AT_EPOCH":"12012","ECCENTRICITY":"0.00012150","MEAN_ELEMENT_THEORY":"SGP4","ELEMENT_SET_NO":"999","MEAN_ANOMALY":"249.8740","PERIAPSIS":"546.369","TLE_LINE1":"1 46350U 20062AB  22307.64743099  .00001330  00000-0  10817-3 0  9991","MEAN_MOTION_DOT":"0.00001330","OBJECT_TYPE":"PAYLOAD","CENTER_NAME":"EARTH","GP_ID":"216858515","INCLINATION":"53.0544","EPOCH":"2022-11-03T15:32:18.037536","TIME_SYSTEM":"UTC","MEAN_MOTION_DDOT":"0.0000000000000","LAUNCH_DATE":"2020-09-03","CLASSIFICATION_TYPE":"U","OBJECT_ID":"2020-062AB","PERIOD":"95.592","FILE":"3644033","EPHEMERIS_TYPE":"0","OBJECT_NAME":"STARLINK-1617","ARG_OF_PERICENTER":"110.2380","SITE":"AFETR","APOAPSIS":"548.052","DECAY_DATE":null,"TLE_LINE2":"2 46350  53.0544 102.5856 0001215 110.2380 249.8740 15.06400953120125","COUNTRY_CODE":"US","MEAN_MOTION":"15.06400953"},{"MEAN_MOTION_DOT":"0.00001063","TLE_LINE1":"1 46351U 20062AC  22307.58567131  .00001063  00000-0  90222-4 0  9998","OBJECT_TYPE":"PAYLOAD","PERIAPSIS":"546.260","CENTER_NAME":"EARTH","MEAN_ANOMALY":"251.6160","ELEMENT_SET_NO":"999","REF_FRAME":"TEME","MEAN_ELEMENT_THEORY":"SGP4","ECCENTRICITY":"0.00013890","REV_AT_EPOCH":"12040","RCS_SIZE":"LARGE","NORAD_CAT_ID":"46351","SEMIMAJOR_AXIS":"6925.357","BSTAR":"0.00009022200000","RA_OF_ASC_NODE":"82.8341","OBJECT_NAME":"STARLINK-1646","EPHEMERIS_TYPE":"0","ARG_OF_PERICENTER":"108.4980","SITE":"AFETR","APOAPSIS":"548.184","MEAN_MOTION":"15.06397307","DECAY_DATE":null,"TLE_LINE2":"2 46351  53.0554  82.8341 0001389 108.4980 251.6160 15.06397307120409","COUNTRY_CODE":"US","PERIOD":"95.592","OBJECT_ID":"2020-062AC","FILE":"3644033","CLASSIFICATION_TYPE":"U","EPOCH":"2022-11-03T14:03:22.001184","MEAN_MOTION_DDOT":"0.0000000000000","LAUNCH_DATE":"2020-09-03","TIME_SYSTEM":"UTC","GP_ID":"216858766","INCLINATION":"53.0554"},{"EPOCH":"2022-11-03T18:24:48.608928","TIME_SYSTEM":"UTC","MEAN_MOTION_DDOT":"0.0000000000000","LAUNCH_DATE":"2020-09-03","GP_ID":"216859512","INCLINATION":"53.0560","ARG_OF_PERICENTER":"109.7920","OBJECT_NAME":"STARLINK-1653","EPHEMERIS_TYPE":"0","SITE":"AFETR","APOAPSIS":"548.369","DECAY_DATE":null,"COUNTRY_CODE":"US","TLE_LINE2":"2 46352  53.0560  82.0501 0001616 109.7920 250.3244 15.06388271120429","MEAN_MOTION":"15.06388271","CLASSIFICATION_TYPE":"U","PERIOD":"95.593","OBJECT_ID":"2020-062AD","FILE":"3644033","REF_FRAME":"TEME","RCS_SIZE":"LARGE","REV_AT_EPOCH":"12042","MEAN_ELEMENT_THEORY":"SGP4","ECCENTRICITY":"0.00016160","BSTAR":"0.00003365300000","RA_OF_ASC_NODE":"82.0501","NORAD_CAT_ID":"46352","SEMIMAJOR_AXIS":"6925.385","PERIAPSIS":"546.130","TLE_LINE1":"1 46352U 20062AD  22307.76722927  .00000220  00000-0  33653-4 0  9994","MEAN_MOTION_DOT":"0.00000220","OBJECT_TYPE":"PAYLOAD","CENTER_NAME":"EARTH","ELEMENT_SET_NO":"999","MEAN_ANOMALY":"250.3244"}];
